HST                     
1 20580U 90037B   26157.32027908  .00006872  00000+0  21780-3 0  9999
2 20580  28.4714 154.8380 0001885  34.6923 325.3796 15.30632786786907
POLAR                   
1 23802U 96013A   26157.25380788  .00000121  00000+0  00000+0 0  9998
2 23802  79.8415 227.1806 6459687 209.4581  89.1646  1.29846142144719
SWAS                    
1 25560U 98071A   26157.61260087  .00005013  00000+0  31771-3 0  9994
2 25560  69.8962 254.7875 0008898 269.5616  90.4529 15.09555737495673
CXO                     
1 25867U 99040B   26158.79821798  .00000708  00000+0  00000+0 0  9996
2 25867  55.9928 116.9568 7854200 310.2595   0.2905  0.37800379 17286
XMM-NEWTON              
1 25989U 99066A   26157.37875651  .00000096  00000+0  00000+0 0  9999
2 25989  64.5482 283.1267 4678331  65.0797   0.1118  0.50125302 22956
TERRA                   
1 25994U 99068A   26157.94973347  .00000406  00000+0  91562-4 0  9994
2 25994  97.9460 207.9015 0000879 241.8114 174.8380 14.61094985408117
CLUSTER II-FM7 (SAMBA)  
1 26410U 00041A   26159.21452506  .00004289  00000+0  00000+0 0  9997
2 26410 149.9021  49.0985 9044304 266.1693 359.9197  0.44821039 20278
CLUSTER II-FM8 (TANGO)  
1 26464U 00045B   26157.18212104  .00004544  00000+0  00000+0 0  9996
2 26464 150.1407  49.6985 9046201 266.6195   3.2041  0.44406384 20263
ODIN                    
1 26702U 01007A   26157.66870289  .00164905  00000+0  12201-2 0  9994
2 26702  97.3858 197.9609 0006182 156.3347 203.8202 15.72423292387749
TIMED                   
1 26998U 01055B   26157.63783829  .00001524  00000+0  14194-3 0  9995
2 26998  74.0681 256.2585 0000520 356.4876   3.6304 14.95270460329245
CORIOLIS                
1 27640U 03001A   26157.76834463  .00000115  00000+0  74669-4 0  9997
2 27640  98.7127 164.8123 0012914 240.8176 119.1709 14.19941982212747
SORCE                   
1 27651U 03004A   26157.91161893  .00003313  00000+0  24784-3 0  9994
2 27651  39.9919 320.3020 0017996 334.2309  25.7588 15.03657674270355
MOST                    
1 27843U 03031D   26157.72216449  .00000077  00000+0  55559-4 0  9993
2 27843  98.7045 165.5941 0008712 284.6266  75.3945 14.21320370189220
SCISAT 1                
1 27858U 03036A   26157.82603693  .00000574  00000+0  77921-4 0  9995
2 27858  73.9288 191.9290 0008711 260.6324  99.3867 14.81437394229919
SWIFT                   
1 28485U 04047A   26157.62516102  .00061964  00000+0  53892-3 0  9991
2 28485  20.5528 266.3162 0002758 138.0120 222.0537 15.67271412185207
HINODE (SOLAR-B)        
1 29479U 06041A   26157.76115670  .00000851  00000+0  15472-3 0  9991
2 29479  98.0549 174.0673 0016522 325.4032  34.6097 14.68608687 53349
SHIJIAN-6 02A (SJ-6 02A)
1 29505U 06046A   26157.93275271  .00006910  00000+0  35487-3 0  9999
2 29505  97.6361 198.9232 0003567 148.7213 211.4233 15.16819621 70717
SHIJIAN-6 02B (SJ-6 02B)
1 29506U 06046B   26157.94930869  .00001295  00000+0  10506-3 0  9998
2 29506  97.7160 187.0710 0014587  90.1189 270.1707 15.01349591 69200
FGRST (GLAST)           
1 33053U 08029A   26157.03162891  .00004358  00000+0  16171-3 0  9992
2 33053  25.5829 281.9389 0008065 191.7591 168.2760 15.23890133994130
SDO                     
1 36395U 10005A   26157.34396931 -.00000062  00000+0  00000+0 0  9998
2 36395  34.6287  86.5080 0001398  50.1694 139.9279  1.00271136 59950
CRYOSAT 2               
1 36508U 10013A   26157.95022914  .00000132  00000+0  32168-4 0  9999
2 36508  92.0347 274.8139 0002245  85.7324 274.4139 14.51896213856598
X-SAT                   
1 37389U 11015C   26157.90533251  .00000314  00000+0  15108-3 0  9992
2 37389  98.3512 135.4193 0014616  18.2339 341.9363 14.25203812786211
GCOM-W1 (SHIZUKU)       
1 38337U 12025A   26157.61636294  .00000540  00000+0  12993-3 0  9997
2 38337  98.2020  98.3323 0001876  83.5815  89.1960 14.57114775747493
NUSTAR                  
1 38358U 12031A   26158.00004630  .00002461  00000+0  99422-4 0  9991
2 38358   6.0250 110.5375 0008598 312.5007  93.0007 15.08703333  1308
NEOSSAT                 
1 39089U 13009D   26157.75652699  .00000146  00000+0  65278-4 0  9994
2 39089  98.4176 338.0375 0009790 278.6853  81.3224 14.35822774695248
BRITE-AUSTRIA           
1 39091U 13009F   26157.76034059  .00000191  00000+0  79724-4 0  9993
2 39091  98.3993 337.4545 0008954 271.7200  88.2961 14.36537975695555
IRIS                    
1 39197U 13033A   26157.52493765  .00001221  00000+0  14590-3 0  9998
2 39197  97.9337 356.8355 0024380 357.4012   2.7073 14.85864057698799
HISAKI (SPRINT-A)       
1 39253U 13049A   26157.59666142  .00000136  00000+0  94357-4 0  9990
2 39253  29.7210 273.8556 0136916 291.0311  67.5666 13.55543546629985
CASSIOPE                
1 39265U 13055A   26157.92447638  .00045790 -50783-6  50574-3 0  9992
2 39265  80.9144  79.1738 0296214  96.8508 266.6517 15.24267519666102
STSAT-3                 
1 39422U 13066G   26157.92492288  .00004705  00000+0  35653-3 0  9991
2 39422  97.6216 127.9792 0010881  72.2544 287.9868 15.02695597682667
SWARM B                 
1 39451U 13067A   26157.85531788  .00003933  00000+0  14070-3 0  9997
2 39451  87.7443 345.4565 0003408  91.3826 268.7813 15.28488333681660
